[{"OBJECT_NAME":"STARLINK-31822","OBJECT_ID":"2024-090Y","EPOCH":"2026-03-09T15:18:43.473024","MEAN_MOTION":15.27570605,"ECCENTRICITY":0.00012301,"INCLINATION":43.0026,"RA_OF_ASC_NODE":183.6643,"ARG_OF_PERICENTER":250.1651,"MEAN_ANOMALY":109.9068,"EPHEMERIS_TYPE":0,"CLASSIFICATION_TYPE":"U","NORAD_CAT_ID":59752,"ELEMENT_SET_NO":999,"REV_AT_EPOCH":10342,"BSTAR":3.953187e-6,"MEAN_MOTION_DOT":-1.53e-6,"MEAN_MOTION_DDOT":0},{"OBJECT_NAME":"OBJECT N","OBJECT_ID":"2019-093N","EPOCH":"2026-03-09T21:41:56.087232","MEAN_MOTION":15.29897693,"ECCENTRICITY":0.0006278,"INCLINATION":98.0505,"RA_OF_ASC_NODE":226.9456,"ARG_OF_PERICENTER":33.3806,"MEAN_ANOMALY":326.7828,"EPHEMERIS_TYPE":0,"CLASSIFICATION_TYPE":"U","NORAD_CAT_ID":44891,"ELEMENT_SET_NO":999,"REV_AT_EPOCH":33957,"BSTAR":0.0010567776,"MEAN_MOTION_DOT":0.00030617,"MEAN_MOTION_DDOT":0}]
